ONEWEB-0228             
1 48780U 21045P   24264.77611165  .00000069  00000+0  14869-3 0  9996
2 48780  87.9097  25.4273 0001763 104.0857 256.0469 13.15550654160918
